{
    "links": {
        "self": "http://www.neowsapp.com/rest/v1/neo/3647281?api_key=iIulBulltgU6a56xZRHN4H3l9WmuAYTsLGpBGhQ2"
    },
    "id": "3647281",
    "neo_reference_id": "3647281",
    "name": "(2013 RK21)",
    "designation": "2013 RK21",
    "nasa_jpl_url": "http://ssd.jpl.nasa.gov/sbdb.cgi?sstr=3647281",
    "absolute_magnitude_h": 24.5,
    "estimated_diameter": {
        "kilometers": {
            "estimated_diameter_min": 0.0334622374,
            "estimated_diameter_max": 0.0748238376
        },
        "meters": {
            "estimated_diameter_min": 33.4622374455,
            "estimated_diameter_max": 74.8238376074
        },
        "miles": {
            "estimated_diameter_min": 0.0207924639,
            "estimated_diameter_max": 0.0464933628
        },
        "feet": {
            "estimated_diameter_min": 109.7842471007,
            "estimated_diameter_max": 245.4850393757
        }
    },
    "is_potentially_hazardous_asteroid": false,
    "close_approach_data": [
        {
            "close_approach_date": "2013-08-29",
            "close_approach_date_full": "2013-Aug-29 13:44",
            "epoch_date_close_approach": 1377783840000,
            "relative_velocity": {
                "kilometers_per_second": "6.2004632952",
                "kilometers_per_hour": "22321.6678627479",
                "miles_per_hour": "13869.8163450502"
            },
            "miss_distance": {
                "astronomical": "0.0476249612",
                "lunar": "18.5261099068",
                "kilometers": "7124592.754352644",
                "miles": "4427016.6540647272"
            },
            "orbiting_body": "Earth"
        },
        {
            "close_approach_date": "2093-07-11",
            "close_approach_date_full": "2093-Jul-11 05:12",
            "epoch_date_close_approach": 3898127520000,
            "relative_velocity": {
                "kilometers_per_second": "13.7576458002",
                "kilometers_per_hour": "49527.5248807178",
                "miles_per_hour": "30774.477890466"
            },
            "miss_distance": {
                "astronomical": "0.3053837586",
                "lunar": "118.7942820954",
                "kilometers": "45684759.819154182",
                "miles": "28387193.4199724316"
            },
            "orbiting_body": "Earth"
        },
        {
            "close_approach_date": "2105-10-07",
            "close_approach_date_full": "2105-Oct-07 01:39",
            "epoch_date_close_approach": 4284322740000,
            "relative_velocity": {
                "kilometers_per_second": "15.1417494805",
                "kilometers_per_hour": "54510.2981296423",
                "miles_per_hour": "33870.5794128325"
            },
            "miss_distance": {
                "astronomical": "0.3306068425",
                "lunar": "128.6060617325",
                "kilometers": "49458079.445425475",
                "miles": "30731825.513702555"
            },
            "orbiting_body": "Earth"
        }
    ],
    "orbital_data": {
        "orbit_id": "12",
        "orbit_determination_date": "2017-04-06 08:44:49",
        "first_observation_date": "2013-09-04",
        "last_observation_date": "2013-10-11",
        "data_arc_in_days": 37,
        "observations_used": 67,
        "orbit_uncertainty": "7",
        "minimum_orbit_intersection": ".0462645",
        "jupiter_tisserand_invariant": "3.948",
        "epoch_osculation": "2459000.5",
        "eccentricity": ".4199200599814396",
        "semi_major_axis": "1.803220455191592",
        "inclination": "5.999966235154712",
        "ascending_node_longitude": "170.5971582410595",
        "orbital_period": "884.4466976931407",
        "perihelion_distance": "1.04601201348778",
        "perihelion_argument": "159.859083945339",
        "aphelion_distance": "2.560428896895405",
        "perihelion_time": "2459182.542750397205",
        "mean_anomaly": "285.9023858487724",
        "mean_motion": ".407034138901723",
        "equinox": "J2000",
        "orbit_class": {
            "orbit_class_type": "AMO",
            "orbit_class_description": "Near-Earth asteroid orbits similar to that of 1221 Amor",
            "orbit_class_range": "1.017 AU < q (perihelion) < 1.3 AU"
        }
    },
    "is_sentry_object": false
}